     2.100          NAVIGATION                              RINEX VERSION / TYPE
fic2rin                                 02/03/2017 00:09:25 PGM / RUN BY / DATE
                                                            END OF HEADER
 8 17  2  2  3 59 44.0 -.481018796563D-04 -.125055521494D-11  .000000000000D+00
     .300000000000D+01  .463750000000D+02  .455268963780D-08 -.302432003038D+01
     .250898301601D-05  .245949905366D-02  .762939453125D-05  .515358459282D+04
     .359984000000D+06 -.502914190292D-07 -.144975173024D+01  .726431608200D-07
     .965470881246D+00  .235406250000D+03 -.885932838659D+00 -.813641034272D-08
     .332871008271D-09  .100000000000D+01  .193400000000D+04  .000000000000D+00
     .240000000000D+01  .000000000000D+00  .465661287308D-08  .300000000000D+01
     .356046000000D+06  .400000000000D+01
14 17  2  2  3 59 44.0 -.569601543248D-04 -.170530256582D-11  .000000000000D+00
     .140000000000D+02  .607187500000D+02  .445732852277D-08  .220112365967D+01
     .319816172123D-05  .866841827519D-02  .866502523422D-05  .515362056160D+04
     .359984000000D+06  .484287738800D-07  .177769528737D+01 -.223517417908D-06
     .962209213225D+00  .211250000000D+03 -.195639972477D+01 -.795747431789D-08
     .386087510666D-09  .100000000000D+01  .193400000000D+04  .000000000000D+00
     .240000000000D+01  .000000000000D+00 -.931322574615D-08  .140000000000D+02
     .358956000000D+06  .400000000000D+01
12 17  2  2  3 59 44.0  .388497952372D-03 -.341060513165D-12  .000000000000D+00
     .100000000000D+01 -.261250000000D+02  .391052003171D-08 -.770623381294D+00
    -.123679637909D-05  .636175507680D-02  .106580555439D-04  .515359253883D+04
     .359984000000D+06  .949949026108D-07 -.243143758963D+01  .912696123123D-07
     .989901949641D+00  .191968750000D+03  .785929800994D+00 -.781782564382D-08
    -.209294432239D-09  .100000000000D+01  .193400000000D+04  .000000000000D+00
     .240000000000D+01  .000000000000D+00 -.121071934700D-07  .100000000000D+01
     .359406000000D+06  .400000000000D+01
 8 17  2  2  5 59 44.0 -.481111928821D-04 -.125055521494D-11  .000000000000D+00
     .130000000000D+02  .428437500000D+02  .452733143867D-08 -.197444924460D+01
     .234134495258D-05  .245989544783D-02  .818446278572D-05  .515358297539D+04
     .367184000000D+06 -.484287738800D-07 -.144981022648D+01  .558793544769D-08
     .965473558386D+00  .226687500000D+03 -.885568146348D+00 -.809176562595D-08
     .353228999120D-09  .100000000000D+01  .193400000000D+04  .000000000000D+00
     .240000000000D+01  .000000000000D+00  .465661287308D-08  .130000000000D+02
     .360006000000D+06  .400000000000D+01
12 17  2  2  5 59 44.0  .388495624065D-03 -.341060513165D-12  .000000000000D+00
     .130000000000D+02 -.175937500000D+02  .383087385699D-08  .279596253392D+00
    -.100769102573D-05  .636282691266D-02  .107474625111D-04  .515359450340D+04
     .367184000000D+06  .223517417908D-07 -.243149392953D+01  .968575477600D-07
     .989900374078D+00  .191500000000D+03  .785935847234D+00 -.782496879850D-08
    -.225366530278D-09  .100000000000D+01  .193400000000D+04  .000000000000D+00
     .240000000000D+01  .000000000000D+00 -.121071934700D-07  .130000000000D+02
     .360006000000D+06  .400000000000D+01
14 17  2  2  5 59 44.0 -.569727271795D-04 -.170530256582D-11  .000000000000D+00
     .210000000000D+02  .665625000000D+02  .437839666351D-08 -.303183691602D+01
     .346824526787D-05  .866752234288D-02  .901706516743D-05  .515362200737D+04
     .367184000000D+06  .800937414169D-07  .177763875875D+01 -.856816768646D-07
     .962212127357D+00  .204531250000D+03 -.195641192843D+01 -.787139930395D-08
     .355371945525D-09  .100000000000D+01  .193400000000D+04  .000000000000D+00
     .240000000000D+01  .000000000000D+00 -.931322574615D-08  .210000000000D+02
     .360006000000D+06  .400000000000D+01
17 17  2  2  5 59 44.0 -.192474108189D-03  .125055521494D-11  .000000000000D+00
     .260000000000D+02  .480625000000D+02  .424624830186D-08 -.272414904550D+01
     .254437327385D-05  .116634474834D-01  .738166272640D-05  .515357454109D+04
     .367184000000D+06  .167638063431D-06 -.139377508197D+01  .186264514923D-08
     .978664624876D+00  .244968750000D+03 -.186938451331D+01 -.784211236974D-08
     .396802242692D-09  .100000000000D+01  .193400000000D+04  .000000000000D+00
     .240000000000D+01  .000000000000D+00 -.107102096081D-07  .260000000000D+02
     .360006000000D+06  .400000000000D+01
 1 17  2  2  6  0  0.0  .482960604131D-04  .909494701773D-12  .000000000000D+00
     .101000000000D+03 -.391562500000D+02  .480627162908D-08  .149451047545D+01
    -.193715095520D-05  .617886416148D-02  .474043190479D-05  .515369273758D+04
     .367200000000D+06 -.353902578354D-07 -.387240338937D+00  .171363353729D-06
     .966669951809D+00  .291593750000D+03  .544958966334D+00 -.842142221461D-08
    -.119290683221D-09  .100000000000D+01  .193400000000D+04  .000000000000D+00
     .240000000000D+01  .000000000000D+00  .512227416039D-08  .101000000000D+03
     .360006000000D+06  .400000000000D+01
 2 17  2  2  6  0  0.0  .483093317598D-03 -.670752342558D-11  .000000000000D+00
     .420000000000D+02 -.460312500000D+02  .518021577678D-08  .190877207872D+01
    -.274740159512D-05  .165777639486D-01  .463053584099D-05  .515372253609D+04
     .367200000000D+06 -.152736902237D-06 -.438153867233D+00 -.417232513428D-06
     .945521990500D+00  .284937500000D+03 -.202862761253D+01 -.850106838934D-08
    -.928610108910D-10  .100000000000D+01  .193400000000D+04  .000000000000D+00
     .240000000000D+01  .000000000000D+00 -.204890966415D-07  .420000000000D+02
     .360006000000D+06  .400000000000D+01
 3 17  2  2  6  0  0.0 -.107007101178D-03 -.568434188608D-12  .000000000000D+00
     .560000000000D+02 -.494062500000D+02  .445839999597D-08  .455954020978D+00
    -.260584056377D-05  .470960163511D-03  .106990337372D-04  .515381353188D+04
     .367200000000D+06 -.167638063431D-07  .654447747690D+00  .335276126862D-07
     .959849946220D+00  .171656250000D+03  .530470597258D+00 -.799247577584D-08
    -.213580325049D-09  .100000000000D+01  .193400000000D+04  .000000000000D+00
     .240000000000D+01  .000000000000D+00  .186264514923D-08  .560000000000D+02
     .360006000000D+06  .400000000000D+01
 5 17  2  2  6  0  0.0 -.628926791251D-04  .204636307899D-11  .000000000000D+00
     .440000000000D+02 -.426250000000D+02  .469733852015D-08 -.185196242587D+01
    -.226683914661D-05  .490051263478D-02  .109467655420D-04  .515368139267D+04
     .367200000000D+06  .596046447754D-07  .639164741994D+00 -.260770320892D-07
     .946848310067D+00  .160906250000D+03  .562995087302D+00 -.807212195057D-08
    -.213937482783D-09  .100000000000D+01  .193400000000D+04  .000000000000D+00
     .240000000000D+01  .000000000000D+00 -.107102096081D-07  .440000000000D+02
     .360006000000D+06  .400000000000D+01
 6 17  2  2  6  0  0.0  .307173468173D-03  .500222085975D-11  .000000000000D+00
     .440000000000D+02 -.456562500000D+02  .473198282036D-08  .183259088160D+01
    -.240467488766D-05  .612973584794D-03  .466965138912D-05  .515360791016D+04
     .367200000000D+06  .745058059692D-08 -.395625285050D+00 -.242143869400D-07
     .966458001312D+00  .289906250000D+03 -.138782391367D+01 -.831177479021D-08
    -.166435504135D-09  .100000000000D+01  .193400000000D+04  .000000000000D+00
     .240000000000D+01  .000000000000D+00  .419095158577D-08  .440000000000D+02
     .360006000000D+06  .400000000000D+01
 7 17  2  2  6  0  0.0  .386711210012D-03 -.375166564481D-11  .000000000000D+00
     .105000000000D+03  .178125000000D+01  .475484091535D-08  .874916335526D+00
     .149011611938D-06  .101140424376D-01  .495277345181D-05  .515360711098D+04
     .367200000000D+06 -.484287738800D-07  .277051563130D+01  .135973095894D-06
     .963672183969D+00  .285937500000D+03 -.261480505500D+01 -.844106588999D-08
    -.231795369493D-09  .100000000000D+01  .193400000000D+04  .000000000000D+00
     .240000000000D+01  .000000000000D+00 -.111758708954D-07  .105000000000D+03
     .360006000000D+06  .400000000000D+01
 9 17  2  2  6  0  0.0  .295490492135D-03  .750333128963D-11  .000000000000D+00
     .460000000000D+02  .607187500000D+02  .467448042516D-08 -.246717577861D+01
     .317208468914D-05  .913636875339D-03  .880658626556D-05  .515370046234D+04
     .367200000000D+06  .186264514923D-08  .169178971244D+01 -.186264514923D-07
     .953542560292D+00  .207468750000D+03  .175838583226D+01 -.815855412224D-08
     .232509684962D-09  .100000000000D+01  .193400000000D+04  .000000000000D+00
     .240000000000D+01  .000000000000D+00  .139698386192D-08  .460000000000D+02
     .360006000000D+06  .400000000000D+01
10 17  2  2  6  0  0.0 -.109317712486D-03  .306954461848D-11  .000000000000D+00
     .280000000000D+02 -.554687500000D+02  .442339853802D-08 -.578090337703D+00
    -.302679836750D-05  .218842551112D-02  .109784305096D-04  .515367827225D+04
     .367200000000D+06  .117346644402D-06  .650656731539D+00 -.353902578354D-07
     .960042457462D+00  .168906250000D+03 -.290950898921D+01 -.800711924294D-08
    -.366443835285D-09  .100000000000D+01  .193400000000D+04  .000000000000D+00
     .240000000000D+01  .000000000000D+00  .232830643654D-08  .280000000000D+02
     .360006000000D+06  .400000000000D+01
11 17  2  2  6  0  0.0 -.668238848448D-03 -.113686837722D-11  .000000000000D+00
     .860000000000D+02  .384375000000D+01  .647562687871D-08  .903867174176D+00
     .298023223877D-07  .166375779081D-01  .425241887569D-05  .515369396591D+04
     .367200000000D+06 -.314787030220D-06 -.781768751418D+00 -.139698386192D-06
     .899526109605D+00  .268750000000D+03  .161629163516D+01 -.942396397450D-08
     .149649090628D-09  .100000000000D+01  .193400000000D+04  .000000000000D+00
     .340000000000D+01  .000000000000D+00 -.121071934700D-07  .860000000000D+02
     .360006000000D+06  .400000000000D+01
